{"type": "FeatureCollection", "features": [{"type": "Feature", "properties": {"norad_id": 66412, "name": "HULIANWANG DIGUI 13A", "group": "last-30-days", "lat": -7.261009863741991, "lon": 96.4251900577927, "alt_km": 830.2028593740124, "timestamp": "2025-12-10T18:56:58.831469+00:00", "meta": {"OBJECT_NAME": "HULIANWANG DIGUI 13A", "OBJECT_ID": "2025-258A", "EPOCH": "2025-12-09T03:12:44.519040", "MEAN_MOTION": 14.19925548, "ECCENTRICITY": 0.00045892, "INCLINATION": 50.0057, "RA_OF_ASC_NODE": 277.2127, "ARG_OF_PERICENTER": 347.8692, "MEAN_ANOMALY": 12.2108, "EPHEMERIS_TYPE": 0, "CLASSIFICATION_TYPE": "U", "NORAD_CAT_ID": 66412, "ELEMENT_SET_NO": 999, "REV_AT_EPOCH": 414, "BSTAR": 0.00032047821, "MEAN_MOTION_DOT": 5.27e-06, "MEAN_MOTION_DDOT": 0}, "tle": {"line1": "1 66412U 25258A   25343.13384860  .00000527  00000+0  32048-3 0  9994", "line2": "2 66412  50.0057 277.2127 0004589 347.8692  12.2108 14.19925548  4142"}}, "geometry": {"type": "Point", "coordinates": [96.4251900577927, -7.261009863741991]}}, {"type": "Feature", "properties": {"norad_id": 66413, "name": "HULIANWANG DIGUI 13B", "group": "last-30-days", "lat": 32.609912906420305, "lon": 57.89796834711053, "alt_km": 827.6991089759604, "timestamp": "2025-12-10T18:56:58.831516+00:00", "meta": {"OBJECT_NAME": "HULIANWANG DIGUI 13B", "OBJECT_ID": "2025-258B", "EPOCH": "2025-12-09T08:30:42.060672", "MEAN_MOTION": 14.18998764, "ECCENTRICITY": 0.00064107, "INCLINATION": 50.0063, "RA_OF_ASC_NODE": 276.3756, "ARG_OF_PERICENTER": 353.6698, "MEAN_ANOMALY": 6.4131, "EPHEMERIS_TYPE": 0, "CLASSIFICATION_TYPE": "U", "NORAD_CAT_ID": 66413, "ELEMENT_SET_NO": 999, "REV_AT_EPOCH": 417, "BSTAR": 0.00044989424, "MEAN_MOTION_DOT": 7.88e-06, "MEAN_MOTION_DDOT": 0}, "tle": {"line1": "1 66413U 25258B   25343.35465348  .00000788  00000+0  44989-3 0  9996", "line2": "2 66413  50.0063 276.3756 0006410 353.6698   6.4131 14.18998764  4177"}}, "geometry": {"type": "Point", "coordinates": [57.89796834711053, 32.609912906420305]}}, {"type": "Feature", "properties": {"norad_id": 66414, "name": "HULIANWANG DIGUI 13C", "group": "last-30-days", "lat": 18.62283425170029, "lon": 73.92459296273188, "alt_km": 829.0288322665674, "timestamp": "2025-12-10T18:56:58.831537+00:00", "meta": {"OBJECT_NAME": "HULIANWANG DIGUI 13C", "OBJECT_ID": "2025-258C", "EPOCH": "2025-12-09T03:21:13.066848", "MEAN_MOTION": 14.19246085, "ECCENTRICITY": 0.00047063, "INCLINATION": 50.0081, "RA_OF_ASC_NODE": 277.2503, "ARG_OF_PERICENTER": 342.5024, "MEAN_ANOMALY": 17.5724, "EPHEMERIS_TYPE": 0, "CLASSIFICATION_TYPE": "U", "NORAD_CAT_ID": 66414, "ELEMENT_SET_NO": 999, "REV_AT_EPOCH": 414, "BSTAR": 0.00041183983, "MEAN_MOTION_DOT": 7.11e-06, "MEAN_MOTION_DDOT": 0}, "tle": {"line1": "1 66414U 25258C   25343.13973457  .00000711  00000+0  41184-3 0  9998", "line2": "2 66414  50.0081 277.2503 0004706 342.5024  17.5724 14.19246085  4145"}}, "geometry": {"type": "Point", "coordinates": [73.92459296273188, 18.62283425170029]}}, {"type": "Feature", "properties": {"norad_id": 66415, "name": "HULIANWANG DIGUI 13D", "group": "last-30-days", "lat": -15.805572818860417, "lon": 104.01362248186497, "alt_km": 830.6151136784538, "timestamp": "2025-12-10T18:56:58.831550+00:00", "meta": {"OBJECT_NAME": "HULIANWANG DIGUI 13D", "OBJECT_ID": "2025-258D", "EPOCH": "2025-12-09T03:09:52.475040", "MEAN_MOTION": 14.20116062, "ECCENTRICITY": 0.00047716, "INCLINATION": 50.0116, "RA_OF_ASC_NODE": 277.2068, "ARG_OF_PERICENTER": 0.2986, "MEAN_ANOMALY": 359.7928, "EPHEMERIS_TYPE": 0, "CLASSIFICATION_TYPE": "U", "NORAD_CAT_ID": 66415, "ELEMENT_SET_NO": 999, "REV_AT_EPOCH": 414, "BSTAR": 0.00038203452, "MEAN_MOTION_DOT": 6.62e-06, "MEAN_MOTION_DDOT": 0}, "tle": {"line1": "1 66415U 25258D   25343.13185735  .00000662  00000+0  38203-3 0  9996", "line2": "2 66415  50.0116 277.2068 0004771   0.2986 359.7928 14.20116062  4148"}}, "geometry": {"type": "Point", "coordinates": [104.01362248186497, -15.805572818860417]}}, {"type": "Feature", "properties": {"norad_id": 66416, "name": "HULIANWANG DIGUI 13E", "group": "last-30-days", "lat": 10.066065124974257, "lon": 81.75889360575809, "alt_km": 829.4986702523902, "timestamp": "2025-12-10T18:56:58.831562+00:00", "meta": {"OBJECT_NAME": "HULIANWANG DIGUI 13E", "OBJECT_ID": "2025-258E", "EPOCH": "2025-12-09T08:22:19.522848", "MEAN_MOTION": 14.19348736, "ECCENTRICITY": 0.00039271, "INCLINATION": 50.0045, "RA_OF_ASC_NODE": 276.3517, "ARG_OF_PERICENTER": 345.3839, "MEAN_ANOMALY": 14.6958, "EPHEMERIS_TYPE": 0, "CLASSIFICATION_TYPE": "U", "NORAD_CAT_ID": 66416, "ELEMENT_SET_NO": 999, "REV_AT_EPOCH": 417, "BSTAR": 0.00047173942, "MEAN_MOTION_DOT": 8.4e-06, "MEAN_MOTION_DDOT": 0}, "tle": {"line1": "1 66416U 25258E   25343.34883707  .00000840  00000+0  47174-3 0  9999", "line2": "2 66416  50.0045 276.3517 0003927 345.3839  14.6958 14.19348736  4177"}}, "geometry": {"type": "Point", "coordinates": [81.75889360575809, 10.066065124974257]}}, {"type": "Feature", "properties": {"norad_id": 66417, "name": "HULIANWANG DIGUI 13F", "group": "last-30-days", "lat": 1.8652971869221646, "lon": 88.72221265672795, "alt_km": 829.4486886787727, "timestamp": "2025-12-10T18:56:58.831574+00:00", "meta": {"OBJECT_NAME": "HULIANWANG DIGUI 13F", "OBJECT_ID": "2025-258F", "EPOCH": "2025-12-09T08:19:34.689792", "MEAN_MOTION": 14.1954336, "ECCENTRICITY": 0.0003281, "INCLINATION": 49.9994, "RA_OF_ASC_NODE": 276.3221, "ARG_OF_PERICENTER": 337.0094, "MEAN_ANOMALY": 23.067, "EPHEMERIS_TYPE": 0, "CLASSIFICATION_TYPE": "U", "NORAD_CAT_ID": 66417, "ELEMENT_SET_NO": 999, "REV_AT_EPOCH": 417, "BSTAR": 0.0004116435, "MEAN_MOTION_DOT": 7.16e-06, "MEAN_MOTION_DDOT": 0}, "tle": {"line1": "1 66417U 25258F   25343.34692928  .00000716  00000+0  41164-3 0  9998", "line2": "2 66417  49.9994 276.3221 0003281 337.0094  23.0670 14.19543360  4179"}}, "geometry": {"type": "Point", "coordinates": [88.72221265672795, 1.8652971869221646]}}, {"type": "Feature", "properties": {"norad_id": 66418, "name": "HULIANWANG DIGUI 13G", "group": "last-30-days", "lat": -21.793130753154994, "lon": 109.84486614942264, "alt_km": 831.2565818907469, "timestamp": "2025-12-10T18:56:58.831586+00:00", "meta": {"OBJECT_NAME": "HULIANWANG DIGUI 13G", "OBJECT_ID": "2025-258G", "EPOCH": "2025-12-09T09:52:43.669056", "MEAN_MOTION": 14.19995679, "ECCENTRICITY": 0.00047642, "INCLINATION": 50.0018, "RA_OF_ASC_NODE": 275.9967, "ARG_OF_PERICENTER": 355.5056, "MEAN_ANOMALY": 4.5812, "EPHEMERIS_TYPE": 0, "CLASSIFICATION_TYPE": "U", "NORAD_CAT_ID": 66418, "ELEMENT_SET_NO": 999, "REV_AT_EPOCH": 418, "BSTAR": 0.00034781431, "MEAN_MOTION_DOT": 5.87e-06, "MEAN_MOTION_DDOT": 0}, "tle": {"line1": "1 66418U 25258G   25343.41161654  .00000587  00000+0  34781-3 0  9997", "line2": "2 66418  50.0018 275.9967 0004764 355.5056   4.5812 14.19995679  4189"}}, "geometry": {"type": "Point", "coordinates": [109.84486614942264, -21.793130753154994]}}, {"type": "Feature", "properties": {"norad_id": 66419, "name": "HULIANWANG DIGUI 13H", "group": "last-30-days", "lat": 35.487020606974916, "lon": -96.56454925184535, "alt_km": 440.78173453198906, "timestamp": "2025-12-10T18:56:58.831601+00:00", "meta": {"OBJECT_NAME": "HULIANWANG DIGUI 13H", "OBJECT_ID": "2025-258H", "EPOCH": "2025-12-08T14:58:00.814656", "MEAN_MOTION": 15.39596954, "ECCENTRICITY": 0.00012505, "INCLINATION": 53.1596, "RA_OF_ASC_NODE": 125.9585, "ARG_OF_PERICENTER": 98.9072, "MEAN_ANOMALY": 261.2074, "EPHEMERIS_TYPE": 0, "CLASSIFICATION_TYPE": "U", "NORAD_CAT_ID": 66419, "ELEMENT_SET_NO": 999, "REV_AT_EPOCH": 804, "BSTAR": 0.0024249346, "MEAN_MOTION_DOT": 0.00097774, "MEAN_MOTION_DDOT": 0}, "tle": {"line1": "1 66419U 25258H   25342.62362054  .00097774  00000+0  24249-2 0  9998", "line2": "2 66419  53.1596 125.9585 0001250  98.9072 261.2074 15.39596954  8045"}}, "geometry": {"type": "Point", "coordinates": [-96.56454925184535, 35.487020606974916]}}, {"type": "Feature", "properties": {"norad_id": 66420, "name": "HULIANWANG DIGUI 13J", "group": "last-30-days", "lat": -35.070285028864504, "lon": 126.32224673699638, "alt_km": 829.509533880363, "timestamp": "2025-12-10T18:56:58.831613+00:00", "meta": {"OBJECT_NAME": "HULIANWANG DIGUI 13J", "OBJECT_ID": "2025-258J", "EPOCH": "2025-12-09T08:06:16.030656", "MEAN_MOTION": 14.20271341, "ECCENTRICITY": 0.00028332, "INCLINATION": 50.0013, "RA_OF_ASC_NODE": 276.2845, "ARG_OF_PERICENTER": 351.7519, "MEAN_ANOMALY": 8.3346, "EPHEMERIS_TYPE": 0, "CLASSIFICATION_TYPE": "U", "NORAD_CAT_ID": 66420, "ELEMENT_SET_NO": 999, "REV_AT_EPOCH": 416, "BSTAR": 0.00032523297, "MEAN_MOTION_DOT": 5.42e-06, "MEAN_MOTION_DDOT": 0}, "tle": {"line1": "1 66420U 25258J   25343.33768554  .00000542  00000+0  32523-3 0  9996", "line2": "2 66420  50.0013 276.2845 0002833 351.7519   8.3346 14.20271341  4160"}}, "geometry": {"type": "Point", "coordinates": [126.32224673699638, -35.070285028864504]}}, {"type": "Feature", "properties": {"norad_id": 66421, "name": "CZ-12 R/B", "group": "last-30-days", "lat": 35.448012297602524, "lon": -56.87540129666317, "alt_km": 790.7875606237039, "timestamp": "2025-12-10T18:56:58.831625+00:00", "meta": {"OBJECT_NAME": "CZ-12 R/B", "OBJECT_ID": "2025-258K", "EPOCH": "2025-12-09T19:26:26.382912", "MEAN_MOTION": 14.42322931, "ECCENTRICITY": 0.00645439, "INCLINATION": 49.9957, "RA_OF_ASC_NODE": 270.6602, "ARG_OF_PERICENTER": 238.862, "MEAN_ANOMALY": 120.596, "EPHEMERIS_TYPE": 0, "CLASSIFICATION_TYPE": "U", "NORAD_CAT_ID": 66421, "ELEMENT_SET_NO": 999, "REV_AT_EPOCH": 430, "BSTAR": 0.00014504035, "MEAN_MOTION_DOT": 3.24e-06, "MEAN_MOTION_DDOT": 0}, "tle": {"line1": "1 66421U 25258K   25343.81002758  .00000324  00000+0  14504-3 0  9994", "line2": "2 66421  49.9957 270.6602 0064543 238.8620 120.5960 14.42322931  4309"}}, "geometry": {"type": "Point", "coordinates": [-56.87540129666317, 35.448012297602524]}}]}